NORAD_CAT_ID,OBJECT_NAME,OBJECT_TYPE,EPOCH,MEAN_MOTION,ECCENTRICITY,INCLINATION,RA_OF_ASC_NODE,ARG_OF_PERICENTER,MEAN_ANOMALY,BSTAR,MEAN_MOTION_DOT,MEAN_MOTION_DDOT,TLE_LINE0,TLE_LINE1,TLE_LINE2,SEMIMAJOR_AXIS,PERIOD,APOGEE,PERIGEE,DECAYED
53898.0,STARLINK-5044,PAYLOAD,2022-12-05 06:00:00,15.08802544,0.0002161,53.2139,267.9221,30.6566,292.5402,0.0036854,0.00058795,0.0,0 STARLINK-5044,1 53898U 22119N   22339.25001157  .00058795  00000-0  36854-2 0  9990,2 53898  53.2139 267.9221 0002161  30.6566 292.5402 15.08802544 11556,6917.995,95.44,541.355,538.365,0.0
53898.0,STARLINK-5044,PAYLOAD,2022-12-05 14:00:01,15.08827378,0.0001994,53.2144,266.4239,33.5246,301.3152,0.0018112,0.00028645,0.0,0 STARLINK-5044,1 53898U 22119N   22339.58335648  .00028645  00000-0  18112-2 0  9999,2 53898  53.2144 266.4239 0001994  33.5246 301.3152 15.08827378  1300,6917.919,95.438,541.163,538.405,0.0
53898.0,STARLINK-5044,PAYLOAD,2022-12-05 22:00:01,15.0888061,0.0002013,53.2149,264.9279,35.23900000000001,311.1854,-0.0033077,-0.00052606,0.0,0 STARLINK-5044,1 53898U 22119N   22339.91668981 -.00052606  00000-0 -33077-2 0  9998,2 53898  53.2149 264.9279 0002013  35.2390 311.1854 15.08880610 11659,6917.755999999999,95.435,541.014,538.229,0.0
53898.0,STARLINK-5044,PAYLOAD,2022-12-06 14:00:01,15.08802166,0.0002093,53.2151,261.9345,35.3752,334.2527,0.0022108,0.00035036,0.0,0 STARLINK-5044,1 53898U 22119N   22340.58335648  .00035036  00000-0  22108-2 0  9993,2 53898  53.2151 261.9345 0002093  35.3752 334.2527 15.08802166  1308,6917.996,95.44,541.309,538.413,0.0
53898.0,STARLINK-5044,PAYLOAD,2022-12-06 16:00:00,15.08797052,0.0002067,53.2149,261.5602,36.006,66.4519,0.0035158,0.00056046,0.0,0 STARLINK-5044,1 53898U 22119N   22340.66667824  .00056046  00000-0  35158-2 0  9999,2 53898  53.2149 261.5602 0002067  36.0060  66.4519 15.08797052 11761,6918.012,95.44,541.307,538.447,0.0
53898.0,STARLINK-5044,PAYLOAD,2022-12-06 23:29:50,15.0882818,0.0002136,53.2156,260.1589,34.3599,325.7531,-9.0311e-06,-4.32e-06,0.0,0 STARLINK-5044,1 53898U 22119N   22340.97905381 -.00000432  00000-0 -90311-5 0  9991,2 53898  53.2156 260.1589 0002136  34.3599 325.7531 15.08828180 11811,6917.917,95.438,541.259,538.304,0.0
53898.0,STARLINK-5044,PAYLOAD,2022-12-07 18:34:28,15.08830843,0.0002294,53.2164,256.5906,31.7657,328.3473,-6.114e-05,-1.261e-05,0.0,0 STARLINK-5044,1 53898U 22119N   22341.77393978 -.00001261  00000-0 -61140-4 0  9991,2 53898  53.2164 256.5906 0002294  31.7657 328.3473 15.08830843 12356,6917.908,95.438,541.36,538.186,0.0
53898.0,STARLINK-5044,PAYLOAD,2022-12-08 00:56:00,15.08839892,0.0002322,53.2163,255.404,33.4944,326.6195,-4.047e-06,-3.53e-06,0.0,0 STARLINK-5044,1 53898U 22119N   22342.03889187 -.00000353  00000-0 -40470-5 0  9998,2 53898  53.2163 255.4040 0002322  33.4944 326.6195 15.08839892 11974,6917.880999999999,95.438,541.352,538.139,0.0
53898.0,STARLINK-5044,PAYLOAD,2022-12-08 04:06:46,15.08846875,0.0002249,53.2171,254.8056,42.4205,317.696,-4.915e-06,-3.67e-06,0.0,0 STARLINK-5044,1 53898U 22119N   22342.17136853 -.00000367  00000-0 -49150-5 0  9997,2 53898  53.2171 254.8056 0002249  42.4205 317.6960 15.08846875 12410,6917.859,95.437,541.28,538.169,0.0
53898.0,STARLINK-5044,PAYLOAD,2022-12-09 00:46:45,15.08851037,0.0002191,53.2166,250.9418,36.4782,323.6359,0.00015077,2.113e-05,0.0,0 STARLINK-5044,1 53898U 22119N   22343.03247391  .00002113  00000-0  15077-3 0  9991,2 53898  53.2166 250.9418 0002191  36.4782 323.6359 15.08851037 12125,6917.847,95.437,541.227,538.196,0.0
53898.0,STARLINK-5044,PAYLOAD,2022-12-09 03:57:31,15.088523,0.0002145,53.2165,250.3482,36.2326,323.8812,0.00015077,2.113e-05,0.0,0 STARLINK-5044,1 53898U 22119N   22343.16495262  .00002113  00000-0  15077-3 0  9997,2 53898  53.2165 250.3482 0002145  36.2326 323.8812 15.08852300 12568,6917.843000000003,95.437,541.192,538.224,0.0
53898.0,STARLINK-5044,PAYLOAD,2022-12-09 18:16:03,15.08814958,0.0002589,53.2167,247.6751,24.5471,335.5644,-0.00014784,-2.639e-05,0.0,0 STARLINK-5044,1 53898U 22119N   22343.76115147 -.00002639  00000-0 -14784-3 0  9993,2 53898  53.2167 247.6751 0002589  24.5471 335.5644 15.08814958 12235,6917.956999999999,95.439,541.613,538.031,0.0
53898.0,STARLINK-5044,PAYLOAD,2022-12-10 03:48:23,15.08814351,0.0002293,53.2168,245.8847,35.39,324.7244,-0.00023792,-4.07e-05,0.0,0 STARLINK-5044,1 53898U 22119N   22344.15860149 -.00004070  00000-0 -23792-3 0  9996,2 53898  53.2168 245.8847 0002293  35.3900 324.7244 15.08814351 12717,6917.959,95.439,541.41,538.238,0.0
53898.0,STARLINK-5044,PAYLOAD,2022-12-10 22:52:58,15.08842215,0.0002258,53.2168,242.3187,36.9463,323.1684,-0.00010652,-1.983e-05,0.0,0 STARLINK-5044,1 53898U 22119N   22344.95346011 -.00001983  00000-0 -10652-3 0  9992,2 53898  53.2168 242.3187 0002258  36.9463 323.1684 15.08842215 12416,6917.874,95.437,541.3009999999998,538.177,0.0
53898.0,STARLINK-5044,PAYLOAD,2022-12-11 03:39:08,15.08841517,0.0002305,53.2168,241.4271,36.3985,323.7163,-0.00010002,-1.88e-05,0.0,0 STARLINK-5044,1 53898U 22119N   22345.15218070 -.00001880  00000-0 -10002-3 0  9993,2 53898  53.2168 241.4271 0002305  36.3985 323.7163 15.08841517 12867,6917.876,95.437,541.335,538.146,0.0
53898.0,STARLINK-5044,PAYLOAD,2022-12-11 16:22:13,15.08825372,0.0002294,53.2169,239.048,35.3564,324.758,0.00015577,2.191e-05,0.0,0 STARLINK-5044,1 53898U 22119N   22345.68210411  .00002191  00000-0  15577-3 0  9998,2 53898  53.2169 239.0480 0002294  35.3564 324.7580 15.08825372 12520,6917.925,95.438,541.377,538.203,0.0
53898.0,STARLINK-5044,PAYLOAD,2022-12-11 21:08:23,15.08818681,0.0002237,53.2158,238.1537,34.3893,325.7243,0.00017774,2.54e-05,0.0,0 STARLINK-5044,1 53898U 22119N   22345.88082906  .00002540  00000-0  17774-3 0  9995,2 53898  53.2158 238.1537 0002237  34.3893 325.7243 15.08818681 12973,6917.946,95.439,541.3580000000002,538.263,0.0
53898.0,STARLINK-5044,PAYLOAD,2022-12-12 03:29:56,15.08822346,0.0002322,53.2159,236.9636,34.0664,326.0477,0.00019828,2.867e-05,0.0,0 STARLINK-5044,1 53898U 22119N   22346.14578919  .00002867  00000-0  19828-3 0  9993,2 53898  53.2159 236.9636 0002322  34.0664 326.0477 15.08822346 13010,6917.934,95.439,541.406,538.193,0.0
53898.0,STARLINK-5044,PAYLOAD,2022-12-13 01:45:19,15.08840487,0.0002433,53.2159,232.8003,34.7064,325.4087,1.7594e-05,-8e-08,0.0,0 STARLINK-5044,1 53898U 22119N   22347.07314667 -.00000008  00000-0  17594-4 0  9999,2 53898  53.2159 232.8003 0002433  34.7064 325.4087 15.08840487 12731,6917.879,95.438,541.427,538.061,0.0
53898.0,STARLINK-5044,PAYLOAD,2022-12-13 16:03:48,15.08836896,0.0002462,53.2159,230.1239,35.3674,324.7482,-5.2251e-06,-3.72e-06,0.0,0 STARLINK-5044,1 53898U 22119N   22347.66931005 -.00000372  00000-0 -52251-5 0  9990,2 53898  53.2159 230.1239 0002462  35.3674 324.7482 15.08836896 13246,6917.89,95.438,541.4580000000002,538.052,0.0
53898.0,STARLINK-5044,PAYLOAD,2022-12-14 09:33:02,15.08837635,0.0002324,53.216,226.8535,36.3219,323.793,-2.174800000000001e-05,-6.34e-06,0.0,0 STARLINK-5044,1 53898U 22119N   22348.39794895 -.00000634  00000-0 -21748-4 0  9992,2 53898  53.2160 226.8535 0002324  36.3219 323.7930 15.08837635 13353,6917.888000000001,95.438,541.36,538.145,0.0
53898.0,STARLINK-5044,PAYLOAD,2022-12-14 19:05:21,15.0883937,0.0002543,53.217,225.0712,33.702,326.4134,2.9747e-05,1.85e-06,0.0,0 STARLINK-5044,1 53898U 22119N   22348.79538547  .00000185  00000-0  29747-4 0  9992,2 53898  53.2170 225.0712 0002543  33.7020 326.4134 15.08839370 13417,6917.882,95.438,541.507,537.988,0.0
53898.0,STARLINK-5044,PAYLOAD,2022-12-15 12:34:35,15.08841075,0.0002499,53.2174,221.7996,34.6246,325.4908,4.0759e-05,3.6000000000000007e-06,0.0,0 STARLINK-5044,1 53898U 22119N   22349.52402451  .00000360  00000-0  40759-4 0  9999,2 53898  53.2174 221.7996 0002499  34.6246 325.4908 15.08841075 13523,6917.877,95.437,541.471,538.013,0.0
53898.0,STARLINK-5044,PAYLOAD,2022-12-15 18:56:07,15.08849132,0.0002348,53.2172,220.6094,36.0555,324.0595,1.6675e-05,-2.3e-07,0.0,0 STARLINK-5044,1 53898U 22119N   22349.78897904 -.00000023  00000-0  16675-4 0  9995,2 53898  53.2172 220.6094 0002348  36.0555 324.0595 15.08849132 13147,6917.852,95.437,541.342,538.0930000000002,0.0
53898.0,STARLINK-5044,PAYLOAD,2022-12-15 20:31:31,15.08846212,0.0001958,53.2171,220.3103,42.0918,318.0224,-2.94e-05,-7.56e-06,0.0,0 STARLINK-5044,1 53898U 22119N   22349.85522156 -.00000756  00000-0 -29400-4 0  9991,2 53898  53.2171 220.3103 0001958  42.0918 318.0224 15.08846212 13575,6917.861,95.437,541.081,538.372,0.0
53898.0,STARLINK-5044,PAYLOAD,2022-12-16 01:17:41,15.08839147,0.000238,53.2175,219.4204,34.6585,325.4562,-4.1906e-05,-9.55e-06,0.0,0 STARLINK-5044,1 53898U 22119N   22350.05394726 -.00000955  00000-0 -41906-4 0  9991,2 53898  53.2175 219.4204 0002380  34.6585 325.4562 15.08839147 13180,6917.8830000000025,95.438,541.394,538.102,0.0
53898.0,STARLINK-5044,PAYLOAD,2022-12-16 20:22:18,15.08836633,0.0002378,53.2176,215.8517,35.0635,325.0513,-3.3464000000000004e-05,-8.21e-06,0.0,0 STARLINK-5044,1 53898U 22119N   22350.84882868 -.00000821  00000-0 -33464-4 0  9999,2 53898  53.2176 215.8517 0002378  35.0635 325.0513 15.08836633 13725,6917.891,95.438,541.401,538.111,0.0
53898.0,STARLINK-5044,PAYLOAD,2022-12-17 01:08:28,15.08832471,0.0002402,53.2172,214.96,35.7542,324.361,5.141e-06,-2.07e-06,0.0,0 STARLINK-5044,1 53898U 22119N   22351.04755040 -.00000207  00000-0  51410-5 0  9992,2 53898  53.2172 214.9600 0002402  35.7542 324.3610 15.08832471 13755,6917.903,95.438,541.43,538.107,0.0
53898.0,STARLINK-5044,PAYLOAD,2022-12-17 18:37:43,15.08831389,0.0002323,53.2174,211.6885,37.6576,322.4578,-0.00012445,-2.268e-05,0.0,0 STARLINK-5044,1 53898U 22119N   22351.77619915 -.00002268  00000-0 -12445-3 0  9995,2 53898  53.2174 211.6885 0002323  37.6576 322.4578 15.08831389 13867,6917.906999999997,95.438,541.379,538.165,0.0
